{"type": "FeatureCollection", "features": [ {"type": "Feature", "properties": {"norad_id": 66878, "name": "STARLINK-35866", "group": "last-30-days", "lat": -24.283224389994036, "lon": -102.53248836270753, "alt_km": 311.49649379132006, "timestamp": "2025-12-15T22:44:27.662266+00:00", "meta": {"OBJECT_NAME": "STARLINK-35866", "OBJECT_ID": "2025-283A", "EPOCH": "2025-12-15T08:15:52.767936", "MEAN_MOTION": 15.88390533, "ECCENTRICITY": 2.936e-05, "INCLINATION": 53.1553, "RA_OF_ASC_NODE": 60.7504, "ARG_OF_PERICENTER": 60.204, "MEAN_ANOMALY": 299.9015, "EPHEMERIS_TYPE": 0, "CLASSIFICATION_TYPE": "U", "NORAD_CAT_ID": 66878, "ELEMENT_SET_NO": 999, "REV_AT_EPOCH": 286, "BSTAR": -0.0011186688, "MEAN_MOTION_DOT": -0.00306758, "MEAN_MOTION_DDOT": 0}, "tle": {"line1": "1 66878U 25283A   25349.34436074 -.00306758  00000+0 -11187-2 0  9999", "line2": "2 66878  53.1553  60.7504 0000293  60.2040 299.9015 15.88390533  2863"}}, "geometry": {"type": "Point", "coordinates": [-102.53248836270753, -24.283224389994036]}}, {"type": "Feature", "properties": {"norad_id": 66879, "name": "STARLINK-35749", "group": "last-30-days", "lat": -28.245650296862138, "lon": -98.56233342992176, "alt_km": 312.0646436999423, "timestamp": "2025-12-15T22:44:27.662276+00:00", "meta": {"OBJECT_NAME": "STARLINK-35749", "OBJECT_ID": "2025-283B", "EPOCH": "2025-12-15T06:43:58.339776", "MEAN_MOTION": 15.88556094, "ECCENTRICITY": 0.00012608, "INCLINATION": 53.1555, "RA_OF_ASC_NODE": 61.0626, "ARG_OF_PERICENTER": 94.2828, "MEAN_ANOMALY": 265.8342, "EPHEMERIS_TYPE": 0, "CLASSIFICATION_TYPE": "U", "NORAD_CAT_ID": 66879, "ELEMENT_SET_NO": 999, "REV_AT_EPOCH": 285, "BSTAR": -0.001480429, "MEAN_MOTION_DOT": -0.00404758, "MEAN_MOTION_DDOT": 0}, "tle": {"line1": "1 66879U 25283B   25349.28053634 -.00404758  00000+0 -14804-2 0  9998", "line2": "2 66879  53.1555  61.0626 0001260  94.2828 265.8342 15.88556094  2851"}}, "geometry": {"type": "Point", "coordinates": [-98.56233342992176, -28.245650296862138]}}, {"type": "Feature", "properties": {"norad_id": 66880, "name": "STARLINK-35844", "group": "last-30-days", "lat": -26.256027613184337, "lon": -100.6037264944678, "alt_km": 311.63841044347464, "timestamp": "2025-12-15T22:44:27.662288+00:00", "meta": {"OBJECT_NAME": "STARLINK-35844", "OBJECT_ID": "2025-283C", "EPOCH": "2025-12-15T06:44:38.951232", "MEAN_MOTION": 15.88534477, "ECCENTRICITY": 0.00010986, "INCLINATION": 53.1555, "RA_OF_ASC_NODE": 61.066, "ARG_OF_PERICENTER": 108.5201, "MEAN_ANOMALY": 251.5944, "EPHEMERIS_TYPE": 0, "CLASSIFICATION_TYPE": "U", "NORAD_CAT_ID": 66880, "ELEMENT_SET_NO": 999, "REV_AT_EPOCH": 285, "BSTAR": -0.0013826835, "MEAN_MOTION_DOT": -0.00378746, "MEAN_MOTION_DDOT": 0}, "tle": {"line1": "1 66880U 25283C   25349.28100638 -.00378746  00000+0 -13827-2 0  9998", "line2": "2 66880  53.1555  61.0660 0001098 108.5201 251.5944 15.88534477  2855"}}, "geometry": {"type": "Point", "coordinates": [-100.6037264944678, -26.256027613184337]}}, {"type": "Feature", "properties": {"norad_id": 66881, "name": "STARLINK-35860", "group": "last-30-days", "lat": -29.794398511901246, "lon": -96.89600217473449, "alt_km": 312.27571166801863, "timestamp": "2025-12-15T22:44:27.662298+00:00", "meta": {"OBJECT_NAME": "STARLINK-35860", "OBJECT_ID": "2025-283D", "EPOCH": "2025-12-15T06:43:26.821920", "MEAN_MOTION": 15.88586477, "ECCENTRICITY": 0.0001292, "INCLINATION": 53.155, "RA_OF_ASC_NODE": 61.0599, "ARG_OF_PERICENTER": 86.4338, "MEAN_ANOMALY": 273.6836, "EPHEMERIS_TYPE": 0, "CLASSIFICATION_TYPE": "U", "NORAD_CAT_ID": 66881, "ELEMENT_SET_NO": 999, "REV_AT_EPOCH": 285, "BSTAR": -0.0015398656, "MEAN_MOTION_DOT": -0.00420875, "MEAN_MOTION_DDOT": 0}, "tle": {"line1": "1 66881U 25283D   25349.28017155 -.00420875  00000+0 -15399-2 0  9997", "line2": "2 66881  53.1550  61.0599 0001292  86.4338 273.6836 15.88586477  2855"}}, "geometry": {"type": "Point", "coordinates": [-96.89600217473449, -29.794398511901246]}}, {"type": "Feature", "properties": {"norad_id": 66882, "name": "STARLINK-35912", "group": "last-30-days", "lat": -31.805637733730002, "lon": -94.61524471328778, "alt_km": 312.0201183418485, "timestamp": "2025-12-15T22:44:27.662308+00:00", "meta": {"OBJECT_NAME": "STARLINK-35912", "OBJECT_ID": "2025-283E", "EPOCH": "2025-12-15T05:12:14.410944", "MEAN_MOTION": 15.88778643, "ECCENTRICITY": 0.00011529, "INCLINATION": 53.1553, "RA_OF_ASC_NODE": 61.3768, "ARG_OF_PERICENTER": 78.7281, "MEAN_ANOMALY": 281.3874, "EPHEMERIS_TYPE": 0, "CLASSIFICATION_TYPE": "U", "NORAD_CAT_ID": 66882, "ELEMENT_SET_NO": 999, "REV_AT_EPOCH": 284, "BSTAR": -0.0015018572, "MEAN_MOTION_DOT": -0.00414751, "MEAN_MOTION_DDOT": 0}, "tle": {"line1": "1 66882U 25283E   25349.21683346 -.00414751  00000+0 -15019-2 0  9997", "line2": "2 66882  53.1553  61.3768 0001152  78.7281 281.3874 15.88778643  2841"}}, "geometry": {"type": "Point", "coordinates": [-94.61524471328778, -31.805637733730002]}}, {"type": "Feature", "properties": {"norad_id": 66883, "name": "STARLINK-35947", "group": "last-30-days", "lat": -33.40170441012377, "lon": -92.6976960654165, "alt_km": 312.1003939287375, "timestamp": "2025-12-15T22:44:27.662318+00:00", "meta": {"OBJECT_NAME": "STARLINK-35947", "OBJECT_ID": "2025-283F", "EPOCH": "2025-12-15T06:42:12.128256", "MEAN_MOTION": 15.88647931, "ECCENTRICITY": 0.00010236, "INCLINATION": 53.1554, "RA_OF_ASC_NODE": 61.0546, "ARG_OF_PERICENTER": 103.8368, "MEAN_ANOMALY": 256.2772, "EPHEMERIS_TYPE": 0, "CLASSIFICATION_TYPE": "U", "NORAD_CAT_ID": 66883, "ELEMENT_SET_NO": 999, "REV_AT_EPOCH": 287, "BSTAR": -0.0015316077, "MEAN_MOTION_DOT": -0.00419928, "MEAN_MOTION_DDOT": 0}, "tle": {"line1": "1 66883U 25283F   25349.27930704 -.00419928  00000+0 -15316-2 0  9998", "line2": "2 66883  53.1554  61.0546 0001023 103.8368 256.2772 15.88647931  2873"}}, "geometry": {"type": "Point", "coordinates": [-92.6976960654165, -33.40170441012377]}}, {"type": "Feature", "properties": {"norad_id": 66884, "name": "STARLINK-36057", "group": "last-30-days", "lat": -36.6713663395889, "lon": -88.40128389997255, "alt_km": 312.7043728153358, "timestamp": "2025-12-15T22:44:27.662328+00:00", "meta": {"OBJECT_NAME": "STARLINK-36057", "OBJECT_ID": "2025-283G", "EPOCH": "2025-12-15T06:40:56.739936", "MEAN_MOTION": 15.88651688, "ECCENTRICITY": 5.647e-05, "INCLINATION": 53.1553, "RA_OF_ASC_NODE": 61.0485, "ARG_OF_PERICENTER": 71.0469, "MEAN_ANOMALY": 289.0618, "EPHEMERIS_TYPE": 0, "CLASSIFICATION_TYPE": "U", "NORAD_CAT_ID": 66884, "ELEMENT_SET_NO": 999, "REV_AT_EPOCH": 285, "BSTAR": -0.0019133106, "MEAN_MOTION_DOT": -0.00518729, "MEAN_MOTION_DDOT": 0}, "tle": {"line1": "1 66884U 25283G   25349.27843449 -.00518729  00000+0 -19133-2 0  9998", "line2": "2 66884  53.1553  61.0485 0000564  71.0469 289.0618 15.88651688  2857"}}, "geometry": {"type": "Point", "coordinates": [-88.40128389997255, -36.6713663395889]}}, {"type": "Feature", "properties": {"norad_id": 66885, "name": "STARLINK-35954", "group": "last-30-days", "lat": -34.97728954694222, "lon": -90.69454670466571, "alt_km": 312.6305555806766, "timestamp": "2025-12-15T22:44:27.662338+00:00", "meta": {"OBJECT_NAME": "STARLINK-35954", "OBJECT_ID": "2025-283H", "EPOCH": "2025-12-15T06:41:34.463904", "MEAN_MOTION": 15.88629816, "ECCENTRICITY": 5.744e-05, "INCLINATION": 53.155, "RA_OF_ASC_NODE": 61.0518, "ARG_OF_PERICENTER": 59.7008, "MEAN_ANOMALY": 300.4074, "EPHEMERIS_TYPE": 0, "CLASSIFICATION_TYPE": "U", "NORAD_CAT_ID": 66885, "ELEMENT_SET_NO": 999, "REV_AT_EPOCH": 285, "BSTAR": -0.0018494155, "MEAN_MOTION_DOT": -0.0050182, "MEAN_MOTION_DDOT": 0}, "tle": {"line1": "1 66885U 25283H   25349.27887111 -.00501820  00000+0 -18494-2 0  9996", "line2": "2 66885  53.1550  61.0518 0000574  59.7008 300.4074 15.88629816  2857"}}, "geometry": {"type": "Point", "coordinates": [-90.69454670466571, -34.97728954694222]}}, {"type": "Feature", "properties": {"norad_id": 66886, "name": "STARLINK-35900", "group": "last-30-days", "lat": -38.64741141898641, "lon": -85.50622500777519, "alt_km": 312.90638925711846, "timestamp": "2025-12-15T22:44:27.662348+00:00", "meta": {"OBJECT_NAME": "STARLINK-35900", "OBJECT_ID": "2025-283J", "EPOCH": "2025-12-15T06:40:10.259328", "MEAN_MOTION": 15.88655421, "ECCENTRICITY": 5.396e-05, "INCLINATION": 53.1551, "RA_OF_ASC_NODE": 61.0445, "ARG_OF_PERICENTER": 69.5512, "MEAN_ANOMALY": 290.5572, "EPHEMERIS_TYPE": 0, "CLASSIFICATION_TYPE": "U", "NORAD_CAT_ID": 66886, "ELEMENT_SET_NO": 999, "REV_AT_EPOCH": 285, "BSTAR": -0.0020261437, "MEAN_MOTION_DOT": -0.0054762, "MEAN_MOTION_DDOT": 0}, "tle": {"line1": "1 66886U 25283J   25349.27789652 -.00547620  00000+0 -20261-2 0  9991", "line2": "2 66886  53.1551  61.0445 0000539  69.5512 290.5572 15.88655421  2851"}}, "geometry": {"type": "Point", "coordinates": [-85.50622500777519, -38.64741141898641]}}, {"type": "Feature", "properties": {"norad_id": 66887, "name": "STARLINK-35925", "group": "last-30-days", "lat": -40.255987746314744, "lon": -82.93867829902095, "alt_km": 312.7869575454506, "timestamp": "2025-12-15T22:44:27.662360+00:00", "meta": {"OBJECT_NAME": "STARLINK-35925", "OBJECT_ID": "2025-283K", "EPOCH": "2025-12-15T06:39:33.859872", "MEAN_MOTION": 15.88696046, "ECCENTRICITY": 5.923e-05, "INCLINATION": 53.1553, "RA_OF_ASC_NODE": 61.0422, "ARG_OF_PERICENTER": 66.4637, "MEAN_ANOMALY": 293.6451, "EPHEMERIS_TYPE": 0, "CLASSIFICATION_TYPE": "U", "NORAD_CAT_ID": 66887, "ELEMENT_SET_NO": 999, "REV_AT_EPOCH": 285, "BSTAR": -0.0019079436, "MEAN_MOTION_DOT": -0.00518451, "MEAN_MOTION_DDOT": 0}, "tle": {"line1": "1 66887U 25283K   25349.27747523 -.00518451  00000+0 -19079-2 0  9998", "line2": "2 66887  53.1553  61.0422 0000592  66.4637 293.6451 15.88696046  2850"}}, "geometry": {"type": "Point", "coordinates": [-82.93867829902095, -40.255987746314744]}}]}